P/2007 R4 (Garradd),e,20.2330,87.2270,282.9943,5.892650,0.0689030,0.66963072,283.8004,11/30.0/2018,2000,g 14.5,4.0
# From MPC 73462
P/2007 S1 (Zhao),e,5.9639,141.4590,245.9744,3.805615,0.1327599,0.34091311,172.9177,11/30.0/2018,2000,g 13.0,4.0
# From MPC 82314
C/2007 S2 (Lemmon),e,16.8452,296.0844,210.6810,12.56279,0.0221348,0.55534495,82.6655,11/30.0/2018,2000,g  6.5,4.0
# From MPC 62270
C/2007 T1 (McNaught),e,117.8949,111.6692,233.9360,2231,0.0000094,0.99956147,0.0000,12/09.3018/2007,2000,g 10.5,4.0
# From MPC 61994
P/2007 T2 (Kowalski),e,9.7335,3.3972,359.6460,3.048735,0.1851503,0.78477650,23.9840,11/30.0/2018,2000,g 18.5,4.0
# From MPC 62879
P/2007 T4 (Gibbs),e,23.8600,37.0590,42.4378,5.248506,0.0819692,0.61800874,340.6814,11/30.0/2018,2000,g 13.0,4.0
# From MPC 65935
C/2007 T5 (Gibbs),e,45.5010,109.8118,34.5907,46.71397,0.0030870,0.91277347,11.8682,11/30.0/2018,2000,g  8.0,4.0
# From MPC 66921
C/2007 U1 (LINEAR),h,08/08.7054/2008,157.7321,50.4609,1.2183,1.000204,3.309053,2000,9.0,4.0
# From MPC 75708
P/2007 VQ11 (Catalina),e,12.3232,163.8236,277.7421,5.418519,0.0781418,0.50273026,308.5561,11/30.0/2018,2000,g 12.0,4.0
# From MPC 81468
C/2007 VO53 (Spacewatch),h,04/22.4848/2010,86.8573,59.6985,75.1504,1.000070,4.859664,2000,7.0,4.0
# From MPC 63599
C/2007 W1 (Boattini),e,9.9048,334.3527,306.4447,1312,0.0000207,0.99936545,0.0000,06/26.8345/2008,2000,g  9.5,4.0
# From MPC 63376
C/2007 W3 (LINEAR),e,78.6166,72.6890,112.6383,4026,0.0000039,0.99955860,0.0000,06/02.1886/2008,2000,g 12.0,4.0
# From MPC 62271
C/2007 Y1 (LINEAR),e,110.0568,133.1611,357.2795,14397,0.0000006,0.99976679,0.0000,03/19.7009/2008,2000,g 10.5,4.0
# From MPC 62271
C/2007 Y2 (McNaught),e,98.3729,303.3664,257.6926,950.9426,0.0000336,0.99558276,0.0000,04/10.7863/2008,2000,g  9.0,4.0
# From MPC 65935
C/2008 A1 (McNaught),e,82.9274,277.6521,348.3440,3848,0.0000041,0.99972283,0.0000,09/28.5978/2008,2000,g  6.5,4.0
# From MPC 62582
C/2008 C1 (Chen-Gao),e,61.5798,307.8375,181.0355,5931,0.0000022,0.99978497,0.0000,04/16.0468/2008,2000,g 10.0,4.0
# From MPC 75708
P/2008 CL94 (Lemmon),e,8.3528,33.3536,81.0586,6.154467,0.0645533,0.12009538,293.2948,11/30.0/2018,2000,g  8.0,4.0
# From MPC112389
C/2008 E1 (Catalina),e,34.8292,188.8418,270.6986,10.81029,0.0277299,0.54869168,104.5176,11/30.0/2018,2000,g  7.0,4.0
# From MPC 68392
C/2008 E3 (Garradd),e,105.2439,105.6533,218.0438,1285,0.0000214,0.99569222,0.0000,07/29.6919/2008,2000,g  6.0,4.0
# From MPC 88324
C/2008 FK75 (Lemmon-Siding Spring),h,10/01.7984/2010,61.2895,218.2768,80.3535,1.001012,4.497083,2000,5.0,4.0
# From MPC 82314
C/2008 G1 (Gibbs),e,73.0557,215.9197,63.6717,292.3690,0.0001972,0.98638212,0.0000,01/14.5921/2009,2000,g  9.5,4.0
# From MPC 63137
C/2008 H1 (LINEAR),e,75.3837,34.4481,96.1468,50.64359,0.0027347,0.94515600,10.7078,11/30.0/2018,2000,g 10.5,4.0
# From MPC 65054
C/2008 J1 (Boattini),e,61.9985,273.6650,67.9638,157.0206,0.0005009,0.98903818,0.0000,07/11.4201/2008,2000,g 10.0,4.0
# From MPC 63376
C/2008 J5 (Garradd),e,93.3587,286.8135,313.0914,68.21568,0.0017494,0.97142663,0.0000,03/31.7189/2008,2000,g 12.0,4.0
# From MPC 82314
C/2008 J6 (Hill),h,04/11.0327/2008,45.1713,298.1214,10.5352,1.000887,1.985707,2000,10.5,4.0
# From MPC 75709
P/2008 L2 (Hill),e,25.8398,218.0057,141.2231,6.026352,0.0666227,0.61216116,251.7356,11/30.0/2018,2000,g 12.5,4.0
# From MPC112389
C/2008 N1 (Holmes),e,115.4562,357.4621,100.9090,858.3305,0.0000392,0.99673227,0.0000,09/20.8962/2009,2000,g  9.0,4.0
# From MPC 64114
P/2008 O3 (Boattini),e,32.1902,47.6367,341.1044,8.230450,0.0417416,0.69369423,160.4685,11/30.0/2018,2000,g 13.0,4.0
# From MPC103843
C/2008 P1 (Garradd),e,64.3268,357.7353,11.6698,2517,0.0000078,0.99845789,0.0000,07/20.0010/2009,2000,g  7.0,4.0
# From MPC 65935
C/2008 Q1 (Maticic),e,118.5511,9.2207,104.4959,554.1663,0.0000756,0.99462543,0.0000,12/24.6752/2008,2000,g 10.0,4.0
# From MPC 80896
C/2008 Q3 (Garradd),e,140.8017,219.5126,340.7769,1659,0.0000146,0.99890504,0.0000,06/19.8426/2009,2000,g 10.0,4.0
# From MPC 75709
P/2008 QP20 (LINEAR-Hill),e,7.5128,322.6415,75.5794,3.534602,0.1483178,0.49679048,192.8251,11/30.0/2018,2000,g 15.5,4.0
# From MPC 64115
C/2008 R3 (LINEAR),e,43.3160,270.8288,83.9442,18.25209,0.0126397,0.89549447,46.2958,11/30.0/2018,2000,g 13.0,4.0
# From MPC 95207
C/2008 S3 (Boattini),h,06/05.8075/2011,162.6912,55.0839,40.0082,1.000781,7.999785,2000,4.0,4.0
# From MPC 66921
C/2008 T2 (Cardinal),h,06/14.3646/2009,56.0653,309.5979,215.9887,1.000194,1.207352,2000,6.0,4.0
# From MPC 66204
P/2008 WZ96 (LINEAR),e,7.2386,56.8157,342.2601,3.466017,0.1527419,0.48084161,208.1662,11/30.0/2018,2000,g 13.5,4.0
# From MPC 65057
C/2008 X3 (LINEAR),e,66.4208,337.7445,140.9684,43.62587,0.0034205,0.95589124,12.6749,11/30.0/2018,2000,g 13.0,4.0
# From MPC 65935
P/2008 Y1 (Boattini),e,8.9187,259.3371,162.8054,4.804457,0.0935918,0.73609197,333.3657,11/30.0/2018,2000,g 15.0,4.0
# From MPC 75710
P/2008 Y3 (McNaught),e,38.7621,262.7850,238.4196,8.040582,0.0432288,0.44663180,156.2159,11/30.0/2018,2000,g  8.5,4.0
# From MPC 88693
P/2008 Y12 (SOHO),e,23.6281,309.7822,144.3896,3.077654,0.1825469,0.97804143,0.0000,10/09.7421/2019,2000,g  9.0,4.0
# From MPC 75710
P/2009 B1 (Boattini),e,22.2214,297.0863,129.0435,6.730072,0.0564514,0.63444136,203.1898,11/30.0/2018,2000,g 13.0,4.0
# From MPC 82315
C/2009 B2 (LINEAR),e,156.9248,18.7394,192.5705,40.87339,0.0037718,0.94255814,13.4097,11/30.0/2018,2000,g 12.5,4.0
# From MPC 72850
C/2009 E1 (Itagaki),e,127.1081,105.6644,48.6344,40.05679,0.0038877,0.98525277,0.0000,04/08.1568/2009,2000,g 11.5,4.0
# From MPC 82315
C/2009 F1 (Larson),e,171.3850,357.9439,219.7340,96.99859,0.0010317,0.98105357,0.0000,06/28.1850/2009,2000,g 15.0,4.0
# From MPC112389
C/2009 F2 (McNaught),e,59.3351,213.9277,336.5643,366.2312,0.0001406,0.98388716,0.0000,11/13.3942/2009,2000,g  6.0,4.0
# From MPC 95208
C/2009 F4 (McNaught),h,01/02.5695/2012,79.4557,53.5586,260.3713,1.000233,5.448031,2000,3.0,4.0
# From MPC 66204
C/2009 F5 (McNaught),e,84.9430,218.8039,297.4256,78.69847,0.0014117,0.97129126,0.0000,11/01.4077/2008,2000,g 10.0,4.0
# From MPC 72850
C/2009 F6 (Yi-SWAN),e,85.6434,279.0666,129.8784,486.4326,0.0000919,0.99736205,0.0000,05/05.8143/2009,2000,g  6.0,4.0
# From MPC 66466
C/2009 G1 (STEREO),e,108.5952,120.5208,175.2862,393.7772,0.0001261,0.99714234,0.0000,04/13.8171/2009,2000,g  9.0,4.0
# From MPC 82315
C/2009 K2 (Catalina),e,66.8568,123.6019,147.5568,894.4941,0.0000368,0.99639295,0.0000,02/08.7747/2010,2000,g 10.0,4.0
# From MPC 66703
C/2009 K4 (Gibbs),e,34.8322,29.8416,127.7948,42.34368,0.0035770,0.96310113,12.3459,11/30.0/2018,2000,g 13.0,4.0
# From MPC 82315
C/2009 K5 (McNaught),e,104.2768,258.1049,66.1977,2416,0.0000083,0.99941078,0.0000,04/30.0146/2010,2000,g  7.5,4.0
# From MPC 69905
C/2009 O2 (Catalina),e,107.7801,310.5861,133.6989,260.3549,0.0002346,0.99729114,0.0000,03/24.2126/2010,2000,g 11.0,4.0
# From MPC 75710
P/2009 O3 (Hill),e,16.2248,183.7871,154.3011,7.777640,0.0454394,0.68604508,158.4990,11/30.0/2018,2000,g 12.5,4.0
# From MPC 67147
C/2009 O4 (Hill),e,95.8009,172.9995,223.6978,9884,0.0000010,0.99974030,0.0000,12/27.6129/2009,2000,g 10.0,4.0
# From MPC103843
C/2009 P1 (Garradd),e,106.3096,326.2080,90.9009,9994,0.0000010,0.99984368,0.0000,12/21.3709/2011,2000,g  4.0,4.0
# From MPC 76024
C/2009 P2 (Boattini),e,163.4109,60.4926,76.1145,9482,0.0000011,0.99931123,0.0000,02/07.4327/2010,2000,g  6.0,4.0
# From MPC 75710
P/2009 Q1 (Hill),e,14.4995,173.9463,157.1253,5.518955,0.0760184,0.49393994,263.2944,11/30.0/2018,2000,g 11.5,4.0
# From MPC112389
P/2009 Q4 (Boattini),e,10.9971,127.4811,320.1034,3.131352,0.1778714,0.58140492,225.0772,11/30.0/2018,2000,g 15.5,4.0
# From MPC 68902
P/2009 Q5 (McNaught),e,40.9064,160.2051,209.0728,7.445148,0.0485170,0.60721279,163.9860,11/30.0/2018,2000,g 10.0,4.0
# From MPC 82315
C/2009 R1 (McNaught),h,07/01.4125/2010,76.8446,322.9279,130.8536,1.000380,0.415088,2000,8.0,4.0
# From MPC 87062
C/2009 S3 (Lemmon),e,60.4520,225.1697,129.6480,6412,0.0000019,0.99899313,0.0000,12/11.5710/2011,2000,g  6.5,4.0
# From MPC 78184
P/2009 SK280 (Spacewatch-Hill),e,16.7999,36.4145,327.9499,4.779509,0.0943255,0.11939972,329.0776,11/30.0/2018,2000,g 11.0,4.0
# From MPC 76567
C/2009 T1 (McNaught),e,90.0439,54.4691,282.5598,1147,0.0000254,0.99458161,0.0000,10/09.8614/2009,2000,g  6.5,4.0
# From MPC112389
P/2009 T2 (La Sagra),e,27.4980,215.7195,216.5584,7.727782,0.0458798,0.76470251,149.3106,11/30.0/2018,2000,g 14.0,4.0
# From MPC 82315
C/2009 T3 (LINEAR),e,148.5840,60.1750,32.3463,2573,0.0000076,0.99911935,0.0000,01/10.9273/2010,2000,g 12.5,4.0
# From MPC 70812
C/2009 U3 (Hill),e,51.0648,49.0734,78.0143,176.2293,0.0004213,0.99188750,0.0000,03/17.0857/2010,2000,g 13.0,4.0
# From MPC 75711
P/2009 U4 (McNaught),e,10.0810,55.3660,259.8346,5.078361,0.0861229,0.67550220,291.5834,11/30.0/2018,2000,g 14.0,4.0
# From MPC 82315
C/2009 U5 (Grauer),h,06/21.5446/2010,25.4296,121.0839,24.2336,1.003623,6.133748,2000,7.0,4.0
# From MPC 82315
C/2009 UG89 (Lemmon),h,12/11.7475/2010,130.1963,321.0631,60.6869,1.005379,3.946696,2000,9.0,4.0
# From MPC 72851
C/2009 W2 (Boattini),e,164.5000,199.5986,121.5203,5929,0.0000022,0.99883642,0.0000,05/07.0516/2010,2000,g  7.0,4.0
# From MPC105235
P/2009 WX51 (Catalina),e,9.5989,31.6751,118.1139,3.077215,0.1825860,0.74036176,229.0253,11/30.0/2018,2000,g 19.0,2.0
# From MPC 82316
C/2009 Y1 (Catalina),e,107.3293,160.1865,127.1027,338.6687,0.0001581,0.99262179,0.0000,01/29.8924/2011,2000,g  9.0,4.0
# From MPC 74247
P/2009 Y2 (Kowalski),e,29.9418,262.0229,172.3278,6.544382,0.0588710,0.63592990,187.3018,11/30.0/2018,2000,g 13.0,4.0
# From MPC 75711
P/2010 A3 (Hill),e,14.9555,64.5934,41.5138,6.073312,0.0658515,0.73216762,208.4921,11/30.0/2018,2000,g 14.0,4.0
# From MPC 77403
C/2010 A4 (Siding Spring),e,96.6969,346.6277,271.5544,286.7671,0.0002030,0.99051514,0.0000,10/11.6523/2010,2000,g 12.5,4.0
# From MPC 72851
P/2010 A5 (LINEAR),e,5.7967,277.6715,307.0548,5.087712,0.0858856,0.66542324,269.6455,11/30.0/2018,2000,g 13.0,4.0
# From MPC111766
